[{"OBJECT_NAME":"YAOGAN-25 01B","OBJECT_ID":"2014-080B","EPOCH":"2026-03-09T23:17:16.355616","MEAN_MOTION":13.4542541,"ECCENTRICITY":0.03582156,"INCLINATION":63.3885,"RA_OF_ASC_NODE":206.5248,"ARG_OF_PERICENTER":8.4777,"MEAN_ANOMALY":352.2085,"EPHEMERIS_TYPE":0,"CLASSIFICATION_TYPE":"U","NORAD_CAT_ID":40339,"ELEMENT_SET_NO":999,"REV_AT_EPOCH":55228,"BSTAR":5.3898333e-5,"MEAN_MOTION_DOT":-4.4e-7,"MEAN_MOTION_DDOT":0},{"OBJECT_NAME":"COSMOS 970 DEB","OBJECT_ID":"1977-121CN","EPOCH":"2026-03-07T02:25:55.319808","MEAN_MOTION":13.71232387,"ECCENTRICITY":0.01100142,"INCLINATION":65.7687,"RA_OF_ASC_NODE":201.4124,"ARG_OF_PERICENTER":86.7927,"MEAN_ANOMALY":89.5429,"EPHEMERIS_TYPE":0,"CLASSIFICATION_TYPE":"U","NORAD_CAT_ID":64977,"ELEMENT_SET_NO":999,"REV_AT_EPOCH":61455,"BSTAR":0.00047396867,"MEAN_MOTION_DOT":3.64e-6,"MEAN_MOTION_DDOT":0}]
